[{"type": "Feature", "properties": {"@id": "node/2443427813", "addr:city": "K\u00f6ln", "addr:housenumber": "527", "addr:postcode": "51145", "addr:street": "Frankfurter Stra\u00dfe", "amenity": "social_facility", "name": "Neukirchener Erziehungsverein", "phone": "+49 2845 3920", "website": "https://www.neukirchener.de/", "wheelchair": "no"}, "geometry": {"type": "Point", "coordinates": [7.0823088, 50.8812553]}, "id": "node/2443427813"}, {"type": "Feature", "properties": {"@id": "node/1962552448", "amenity": "social_facility", "name": "Caritas Zentralstation M\u00fclheim", "social_facility": "ambulatory_care", "website": "https://caritas.erzbistum-koeln.de/koeln-cv/caritas-zentren/caritas-zentrum_muelheim/"}, "geometry": {"type": "Point", "coordinates": [7.0037031, 50.9638114]}, "id": "node/1962552448"}, {"type": "Feature", "properties": {"@id": "node/1023190054", "alt_name": "Suchtkrankenhilfe Drogenabh\u00e4ngige Kontakt u. Beratungsstelle K\u00f6ln", "amenity": "social_facility", "name": "SKM K\u00f6ln Sozialdienst Katholischer M\u00e4nner e.V."}, "geometry": {"type": "Point", "coordinates": [7.0118423, 50.941022]}, "id": "node/1023190054"}, {"type": "Feature", "properties": {"@id": "node/352702446", "amenity": "social_facility", "level": "0", "name": "Gulliver", "note": "http://www.bfoev.de/tagestreffs.html", "social_facility": "outreach", "social_facility:for": "homeless", "source": "photography", "website": "https://www.koelnerarbeitslosenzentrum.de/gulliver/das-projekt.php"}, "geometry": {"type": "Point", "coordinates": [6.9616172, 50.9417089]}, "id": "node/352702446"}, {"type": "Feature", "properties": {"@id": "way/316561836", "addr:city": "K\u00f6ln", "addr:country": "DE", "addr:housenumber": "158", "addr:postcode": "50735", "addr:street": "Merkenicher Stra\u00dfe", "amenity": "social_facility", "building": "yes", "building:levels": "3", "building:use": "gathering"}, "geometry": {"type": "Polygon", "coordinates": [[[6.9635728, 50.988468], [6.9635755, 50.988456], [6.9635215, 50.9884509], [6.9635409, 50.9883682], [6.9634443, 50.9883592], [6.9634624, 50.9882822], [6.9636125, 50.9882963], [6.963614, 50.9882902], [6.9637259, 50.9882994], [6.9636919, 50.988443], [6.9636871, 50.9884787], [6.9635728, 50.988468]]]}, "id": "way/316561836"}, {"type": "Feature", "properties": {"@id": "way/297000958", "amenity": "social_facility", "building": "yes", "building:levels": "2", "roof:shape": "flat"}, "geometry": {"type": "Polygon", "coordinates": [[[6.9018264, 51.0083705], [6.9017309, 51.0083472], [6.9017371, 51.0083371], [6.9017188, 51.0083327], [6.9017141, 51.0083254], [6.9017173, 51.0083202], [6.9016272, 51.0082981], [6.9017609, 51.00808], [6.9016968, 51.0080642], [6.9016835, 51.0080795], [6.9016619, 51.0080903], [6.9016352, 51.0080947], [6.901608, 51.0080919], [6.9015849, 51.0080824], [6.9015698, 51.0080679], [6.9015653, 51.0080507], [6.9015719, 51.0080336], [6.9015081, 51.008018], [6.9013945, 51.008202], [6.9012986, 51.0081785], [6.9013049, 51.0081683], [6.9012868, 51.0081637], [6.9012816, 51.0081563], [6.9012847, 51.0081512], [6.9011944, 51.008129], [6.901331, 51.0079077], [6.9014268, 51.0079313], [6.9014205, 51.0079414], [6.9014414, 51.0079465], [6.9015836, 51.0077159], [6.9015735, 51.0077014], [6.9015817, 51.0076882], [6.9016045, 51.0076818], [6.9016081, 51.0076761], [6.901598, 51.0076616], [6.9016063, 51.0076482], [6.9016292, 51.0076419], [6.9016327, 51.0076362], [6.9016226, 51.0076217], [6.9016308, 51.0076085], [6.9016537, 51.0076021], [6.9016573, 51.0075963], [6.9016472, 51.0075818], [6.9016553, 51.0075687], [6.9016782, 51.0075624], [6.9016818, 51.0075565], [6.9016718, 51.0075418], [6.9016798, 51.007529], [6.9017027, 51.0075225], [6.9017053, 51.0075184], [6.9019179, 51.0075706], [6.9018908, 51.0076146], [6.9019009, 51.0076289], [6.9018928, 51.0076421], [6.9018699, 51.0076485], [6.9018663, 51.0076543], [6.9018762, 51.0076689], [6.9018682, 51.007682], [6.9018454, 51.0076882], [6.9018418, 51.0076941], [6.9018518, 51.0077086], [6.9018437, 51.0077217], [6.9018209, 51.007728], [6.9018173, 51.0077339], [6.9018272, 51.0077484], [6.9018192, 51.0077614], [6.9017964, 51.0077677], [6.9016723, 51.0079689], [6.9022738, 51.0081167], [6.9022954, 51.0080816], [6.9023919, 51.0081053], [6.9023857, 51.0081154], [6.9024064, 51.0081204], [6.9024126, 51.0081104], [6.9025083, 51.0081339], [6.9022556, 51.0085431], [6.90216, 51.0085197], [6.9021688, 51.0085055], [6.90215, 51.0085008], [6.9021458, 51.0084937], [6.9021488, 51.0084889], [6.902058, 51.0084664], [6.902226, 51.0081941], [6.9021619, 51.0081784], [6.9021486, 51.0081936], [6.902127, 51.0082044], [6.9021003, 51.0082088], [6.9020731, 51.008206], [6.9020499, 51.0081966], [6.9020348, 51.008182], [6.9020303, 51.0081648], [6.9020368, 51.0081477], [6.9019729, 51.008132], [6.9018264, 51.0083705]]]}, "id": "way/297000958"}, {"type": "Feature", "properties": {"@id": "way/258538603", "addr:city": "K\u00f6ln", "addr:country": "DE", "addr:housenumber": "113a", "addr:postcode": "50931", "addr:street": "Weyertal", "amenity": "social_facility", "building": "yes", "building:levels": "2", "building:use": "gathering", "name": "Kita Stadt K\u00f6ln", "roof:shape": "gabled"}, "geometry": {"type": "Polygon", "coordinates": [[[6.9249629, 50.9266058], [6.9250038, 50.9265367], [6.9251023, 50.9265599], [6.9250614, 50.926629], [6.9249629, 50.9266058]]]}, "id": "way/258538603"}, {"type": "Feature", "properties": {"@id": "way/243703382", "addr:city": "K\u00f6ln", "addr:country": "DE", "addr:housenumber": "27", "addr:postcode": "50825", "addr:street": "Takustra\u00dfe", "amenity": "social_facility", "building": "yes", "building:use": "gathering"}, "geometry": {"type": "Polygon", "coordinates": [[[6.912463, 50.958139], [6.9124724, 50.958149], [6.9123858, 50.9581817], [6.9122716, 50.9580612], [6.9123714, 50.9580234], [6.9123642, 50.9580157], [6.9124969, 50.9579655], [6.9125042, 50.9579733], [6.9126041, 50.9579355], [6.9127183, 50.9580559], [6.9126316, 50.9580887], [6.9126228, 50.9580794], [6.9125929, 50.9580905], [6.9125914, 50.958106], [6.9125806, 50.95812], [6.9125622, 50.9581303], [6.912539, 50.9581355], [6.9125144, 50.9581347], [6.9124921, 50.9581281], [6.912463, 50.958139]]]}, "id": "way/243703382"}, {"type": "Feature", "properties": {"@id": "way/240776514", "addr:city": "K\u00f6ln", "addr:country": "DE", "addr:housenumber": "18", "addr:postcode": "51149", "addr:street": "Konrad-Adenauer-Stra\u00dfe", "amenity": "social_facility", "building": "yes", "building:use": "gathering", "name": "Familienzentrum Finkenberg"}, "geometry": {"type": "Polygon", "coordinates": [[[7.0647346, 50.8960214], [7.0645009, 50.8960254], [7.0644986, 50.8959379], [7.0643833, 50.8959391], [7.0643821, 50.8958905], [7.0644919, 50.8958893], [7.06449, 50.8958181], [7.0647292, 50.8958156], [7.0647346, 50.8960214]]]}, "id": "way/240776514"}, {"type": "Feature", "properties": {"@id": "way/32699452", "addr:city": "K\u00f6ln", "addr:country": "DE", "addr:housenumber": "16-18", "addr:postcode": "50668", "addr:street": "Niederichstra\u00dfe", "amenity": "social_facility", "building": "yes", "building:use": "gathering", "name": "St. Vincenz-Haus"}, "geometry": {"type": "Polygon", "coordinates": [[[6.9635891, 50.9485511], [6.9637309, 50.9485075], [6.9637726, 50.9484947], [6.9637947, 50.9485236], [6.9638037, 50.9485209], [6.9638173, 50.9485386], [6.9638441, 50.9485304], [6.9638647, 50.9485574], [6.9638771, 50.9485535], [6.9638977, 50.9485797], [6.9638857, 50.9485844], [6.9639526, 50.9486715], [6.9639652, 50.9486676], [6.9639854, 50.9486942], [6.9639733, 50.948698], [6.9640654, 50.9488181], [6.9640577, 50.9488205], [6.9640666, 50.9488322], [6.9640823, 50.948838], [6.9640857, 50.9488343], [6.9640955, 50.9488379], [6.9641306, 50.9488001], [6.9641557, 50.948832], [6.9641363, 50.948853], [6.9641493, 50.9488578], [6.9641442, 50.9488634], [6.9641566, 50.948868], [6.9641793, 50.948862], [6.9642591, 50.9489816], [6.9641069, 50.94901], [6.964105, 50.9490059], [6.964096, 50.9490076], [6.9640979, 50.9490117], [6.9640716, 50.9490167], [6.9640695, 50.9490127], [6.9640604, 50.9490144], [6.9640624, 50.9490184], [6.9640362, 50.9490233], [6.9640344, 50.9490192], [6.964026, 50.9490209], [6.9640279, 50.9490249], [6.9640021, 50.9490297], [6.9640002, 50.9490257], [6.963992, 50.9490273], [6.9639937, 50.9490312], [6.9639902, 50.949032], [6.9639511, 50.949021], [6.9639473, 50.9490162], [6.9639523, 50.9490146], [6.9639481, 50.9490093], [6.9639432, 50.9490107], [6.9639309, 50.9489948], [6.9639367, 50.948993], [6.9639335, 50.9489888], [6.9639276, 50.9489906], [6.9639154, 50.9489747], [6.9639215, 50.9489728], [6.9639175, 50.9489674], [6.9639113, 50.9489694], [6.9638991, 50.9489534], [6.9639051, 50.9489515], [6.963901, 50.9489461], [6.9638949, 50.9489479], [6.9638752, 50.9489225], [6.9638835, 50.94892], [6.9638717, 50.9489046], [6.9638635, 50.9489072], [6.9637505, 50.9487605], [6.963758, 50.9487583], [6.9637446, 50.9487411], [6.9637373, 50.9487433], [6.96366, 50.948643], [6.9636666, 50.9486398], [6.963656, 50.9486264], [6.9636489, 50.9486285], [6.9636038, 50.9485701], [6.9635891, 50.9485511]]]}, "id": "way/32699452"}]